0 XW-2F
1 40910U 15049M   23020.50945469  .00030400  00000-0  10971-2 0  9999
2 40910  97.4706  32.2035 0009763 295.6477 215.5692 15.28408962406262
0 XW-2C
1 40906U 15049H   23020.48475891  .00016234  00000-0  71142-3 0  9995
2 40906  97.4961  27.5824 0011655 329.1227 183.5910 15.22021730405895
0 TEVEL 4
1 51063U 22002CH  23020.47812764  .00022886  00000-0  11128-2 0  9998
2 51063  97.4579  89.0226 0009566  35.1210  89.9846 15.18382468 56295
0 TEVEL 7
1 51062U 22002CG  23020.46331112  .00023187  00000-0  11265-2 0  9996
2 51062  97.4571  89.0179 0009628  34.5362  22.5012 15.18406811 56290
0 TEVEL 8
1 50989U 22002F   23020.46122865  .00021402  00000-0  10407-2 0  9991
2 50989  97.4575  89.0363 0009571  35.9272  20.7827 15.18395326 56290
0 XW-3 (CAS 9)
1 50466U 21131B   23020.46050886  .00000894  00000-0  30620-3 0  9998
2 50466  98.5643 102.4382 0004214 209.8078 150.2869 14.38636044 56116
0 TEVEL 6
1 50999U 22002R   23020.46017541  .00023692  00000-0  11292-2 0  9992
2 50999  97.4558  89.2281 0011122  29.8077  27.7597 15.19056309 56313
0 XW-2D
1 40907U 15049J   23020.45624300  .00018955  00000-0  80332-3 0  9997
2 40907  97.4950  27.7740 0010716 323.0508 196.1200 15.23135943405957
0 JAS 2
1 24278U 96046B   23020.45549141  .00000034  00000-0  67110-4 0  9994
2 24278  98.5158  19.2411 0351287  80.2175 283.8440 13.53128798305204
0 TEVEL 1
1 51013U 22002AF  23020.45435249  .00021852  00000-0  10615-2 0  9992
2 51013  97.4560  88.9487 0009407  36.4836  19.2604 15.18424249 56291
0 TEVEL 5
1 50998U 22002Q   23020.45297851  .00023714  00000-0  11304-2 0  9993
2 50998  97.4560  89.2236 0011106  31.0974 341.0109 15.19048972 56316
0 TEVEL 2
1 51069U 22002CP  23020.45021013  .00021853  00000-0  10608-2 0  9996
2 51069  97.4564  88.9598 0009349  37.3027  19.2375 15.18452530 56295
0 TEVEL 3
1 50988U 22002E   23020.44856690  .00023199  00000-0  11253-2 0  9993
2 50988  97.4565  88.9808 0009547  38.2847  19.4416 15.18461030 56292
0 OBJECT C
1 54684U 22167C   23020.43886394  .00016688  00000-0  10385-2 0  9995
2 54684  97.5397 159.7123 0015508 120.5100 326.3754 15.09576706  6355
0 ZHUHAI-1 01
1 42761U 17034D   23020.42963602  .00011882  00000-0  64935-3 0  9994
2 42761  43.0153 213.7332 0011126 234.9149 201.1815 15.14219924309224
0 XW-2A
1 40903U 15049E   23020.42949252  .00094604  00000-0  80555-3 0  9998
2 40903  97.1469  85.6944 0006798  36.6282  19.8542 15.69250944413076
0 AO-95
1 43770U 18099N   23020.42604506  .00006768  00000-0  57960-3 0  9999
2 43770  97.5951  85.9869 0012868 268.5078  91.4670 14.97817318225471
0 XW-2B
1 40911U 15049N   23020.42415381  .00018691  00000-0  79583-3 0  9999
2 40911  97.4932  28.2606 0010836 326.1239 139.9049 15.22980784405830
0 DIWATA 2B
1 43678U 18084H   23020.41804109  .00003217  00000-0  31755-3 0  9990
2 43678  97.9965 161.7050 0008534 293.7405  66.2951 14.92686000230218
0 ZHUHAI-1 02
1 42759U 17034B   23020.40563646  .00009705  00000-0  53456-3 0  9990
2 42759  43.0155 215.2461 0011397 230.5549 199.7074 15.14100348309216
0 LILACSAT 2
1 40908U 15049K   23020.38604192  .00009082  00000-0  45609-3 0  9996
2 40908  97.5236  24.1143 0014327 351.6278 114.0606 15.17425692405367
0 CSS (TIANHE-1)
1 48274U 21035A   23020.36971454  .00018467  00000-0  22033-3 0  9991
2 48274  41.4763 337.0111 0004563 355.0569 149.0279 15.60606353 98711
0 SAUDISAT 1C
1 27607U 02058C   23020.35908114  .00003007  00000-0  42728-3 0  9991
2 27607  64.5566 357.9335 0079471 253.4257 105.8106 14.76631942 80605
0 ISS (ZARYA)
1 25544U 98067A   23020.35183345  .00018988  00000-0  34130-3 0  9997
2 25544  51.6434 340.8051 0005080 255.3607 202.5139 15.49872713378868
0 XW-2E
1 40909U 15049L   23020.30276007  .00030697  00000-0  10896-2 0  9994
2 40909  97.4618  32.8036 0008526 293.1058 188.4881 15.28961983406471
0 ES'HAIL 2
1 43700U 18090A   23020.29285632  .00000152  00000-0  00000+0 0  9993
2 43700   0.0137  81.3811 0001957 272.3675 256.8576  1.00271448 15443
0 UVSQ-SAT
1 47438U 21006AB  23020.08828781  .00019090  00000-0  91091-3 0  9996
2 47438  97.4102  79.7046 0009724 238.3697 121.6589 15.19072257110120
0 AO-91
1 43017U 17073E   23019.93356688  .00008626  00000-0  62891-3 0  9997
2 43017  97.6520 270.2015 0241200 197.4709 161.8103 14.83486908279187
0 FUNCUBE 1
1 39444U 13066AE  23019.83325803  .00008195  00000-0  94626-3 0  9990
2 39444  97.6525 349.4876 0056259  43.0592 317.5005 14.84706919494200
0 EYESAT A
1 22825U 93061C   23019.83070301  .00000280  00000-0  12588-3 0  9992
2 22825  98.8632  60.1740 0009178 136.3356 223.8553 14.30232793529353
0 OSCAR 7
1  7530U 74089B   23019.75596955 -.00000027  00000-0  12091-3 0  9995
2  7530 101.9327   5.5184 0012232 348.7733  60.6699 12.53660344204813
0 NAYIF 1
1 42017U 17008BX  23019.72416950  .00064463  00000-0  13405-2 0  9997
2 42017  97.2416  88.6393 0003245 174.6329 185.4956 15.45416678330335
0 NEXUS
1 43937U 19003F   23019.59746462  .00040077  00000-0  10633-2 0  9990
2 43937  97.1085  50.1363 0019200  97.0274 263.3156 15.38006068223108
0 LAPAN A2
1 40931U 15052B   23019.48089484  .00001692  00000-0  14512-3 0  9994
2 40931   5.9941  67.8610 0013902 347.5639  12.4131 14.76988012395338
0 AO-92
1 43137U 18004AC  23019.46245324  .00029417  00000-0  85821-3 0  9996
2 43137  97.3481  98.1410 0006297 323.6516  36.4299 15.35282392279400
0 BREEZE-KM R/B
1 44909U 19096E   23019.44271174  .00000016  00000-0  17279-4 0  9993
2 44909  82.5201  86.7885 0217709 174.4737 185.8845 12.79717721143132
0 JY1SAT
1 43803U 18099AX  23019.13484160  .00009969  00000-0  83456-3 0  9999
2 43803  97.5965  85.6006 0012021 262.0737  97.9122 14.98587245225359
0 MT-CUBE-2
1 53106U 22080B   22354.08419093 -.00000003  00000-0  00000+0 0  9990
2 53106  70.1702  21.9397 0008914 226.9685 182.2049  6.42557326 10248
